STARLINK-35587          
1 66158C 25240N   26095.64145833 -.00002070  00000+0 -69785-4 0   951
2 66158  53.1583 297.6965 0001422  94.8161 274.0089 15.30175648    16
STARLINK-35586          
1 66159C 25240P   26095.73312500 -.00059292  00000+0 -19977-2 0   953
2 66159  53.1579 297.4625 0001167  90.6657 324.4521 15.30232709    16
STARLINK-35636          
1 66160C 25240Q   26095.68034722 -.00030798  00000+0 -10375-2 0   959
2 66160  53.1579 297.7002 0001108  96.7138  33.3144 15.30224004    12
STARLINK-35635          
1 66161C 25240R   26095.65812500 -.00020410  00000+0 -68762-3 0   959
2 66161  53.1578 297.6317 0001032  90.5108   4.2867 15.30215139    13
STARLINK-35633          
1 66162C 25240S   26095.69284722 -.00017333  00000+0 -58391-3 0   950
2 66162  53.1600 297.2724 0000792 125.8671 253.2659 15.30215067    12
STARLINK-35607          
1 66163C 25240T   26095.65534722 -.00009689  00000+0 -32639-3 0   957
2 66163  53.1598 297.3881 0001119  83.9915 117.6531 15.30211309    10
STARLINK-35614          
1 66164C 25240U   26095.69145833 -.00013958  00000+0 -47060-3 0   951
2 66164  53.1580 297.6595 0001324  90.0299  89.6597 15.30187326    10
STARLINK-35575          
1 66165C 25240V   26095.72618056 -.00053618  00000+0 -18064-2 0   956
2 66165  53.1574 297.4186 0001010  97.1796 314.5596 15.30231182    19
STARLINK-35624          
1 66166C 25240W   26095.73729167  .00028030  00000+0  94403-3 0   954
2 66166  53.1585 296.8345 0001257  89.9344 290.6160 15.30201125    18
STARLINK-35641          
1 66167C 25240X   26095.73590278 -.00027624  00000+0 -93149-3 0   950
2 66167  53.1594 296.9444 0001262  84.9759 235.6315 15.30189719    16
STARLINK-35578          
1 66168C 25240Y   26095.70534722 -.00037109  00000+0 -12500-2 0   950
2 66168  53.1595 297.2703 0001083  93.9838 325.0712 15.30227986    13
STARLINK-35638          
1 66169C 25240Z   26095.73937500 -.00013235  00000+0 -44616-3 0   953
2 66169  53.1575 297.2871 0001214 114.1108  45.2644 15.30191742    15
STARLINK-35585          
1 66170C 25240AA  26095.64631944 -.00002534  00000+0 -85420-4 0   957
2 66170  53.1580 297.8908 0000538  88.4205 190.7138 15.30188334    16
STARLINK-35606          
1 66171C 25240AB  26095.66506944 -.00012943  00000+0 -43604-3 0   953
2 66171  53.1599 297.3523 0001095  77.7152 171.7013 15.30211680    18
STARLINK-35627          
1 66172C 25240AC  26095.71368056 -.00042448  00000+0 -14300-2 0   953
2 66172  53.1587 297.3016 0001034  86.1033 343.9931 15.30227851    17
STARLINK-35634          
1 66173C 25240AD  26095.63381944 -.00001405  00000+0 -47314-4 0   957
2 66173  53.1598 297.4746 0001087  88.1742   0.6092 15.30212839    13
STARLINK-35363          
1 66178C 25243B   26095.70118056 -.00041074  00000+0 -13838-2 0   953
2 66178  53.1580 119.8899 0001283  73.5477  78.2476 15.30224145    16
STARLINK-35346          
1 66179C 25243C   26095.63312500  .00004883  00000+0  16450-3 0   955
2 66179  53.1577 120.2409 0001288  76.8514  42.3938 15.30199896    18
STARLINK-35335          
1 66180C 25243D   26095.72270833 -.00084275  00000+0 -28393-2 0   952
2 66180  53.1577 119.8594 0001211  87.5558 148.0145 15.30245607    18
STARLINK-35342          
1 66181C 25243E   26095.68104167 -.00044917  00000+0 -15121-2 0   958
2 66181  53.1573 120.0767 0001270  62.8870 291.3365 15.30250558    16
STARLINK-35333          
1 66182C 25243F   26095.69770833 -.00041451  00000+0 -13960-2 0   958
2 66182  53.1572 120.0231 0001049  94.3222 340.1245 15.30237272    15
STARLINK-35310          
1 66183C 25243G   26095.63937500 -.00000497  00000+0 -16753-4 0   959
2 66183  53.1568 120.3290 0001144  85.3256  10.1882 15.30202568    13
STARLINK-35317          
1 66184C 25243H   26095.64284722 -.00004509  00000+0 -15191-3 0   954
2 66184  53.1580 120.1764 0001300  84.7411  99.7205 15.30205583    14
STARLINK-35377          
1 66185C 25243J   26095.65048611 -.00021036  00000+0 -70864-3 0   953
2 66185  53.1571 120.2568 0001240  77.1595  91.2462 15.30218345    12
STARLINK-35365          
1 66186C 25243K   26095.69076389 -.00046019  00000+0 -15503-2 0   957
2 66186  53.1575 120.0235 0001204  68.8820 344.7905 15.30228768    12
STARLINK-35350          
1 66187C 25243L   26095.66993056 -.00032968  00000+0 -11108-2 0   959
2 66187  53.1569 120.2014 0001149  87.0113 171.1126 15.30218941    18
STARLINK-35041          
1 66188C 25243M   26095.64284722 -.00004909  00000+0 -16540-3 0   951
2 66188  53.1579 120.1422 0001292  89.6023 112.3090 15.30206441    18
STARLINK-34694          
1 66189C 25243N   26095.64284722 -.00013758  00000+0 -46351-3 0   957
2 66189  53.1580 120.0722 0001207  83.9551 152.8551 15.30212383    15
STARLINK-34863          
1 66190C 25243P   26095.71229167 -.00168420  00000+0 -56634-2 0   950
2 66190  53.1576 119.8887 0001153  94.0806  95.6724 15.30348549    16
STARLINK-35061          
1 66191C 25243Q   26095.66090278 -.00022918  00000+0 -77210-3 0   959
2 66191  53.1566 120.2639 0001210  90.2919 106.4351 15.30215998    12
STARLINK-34937          
1 66192C 25243R   26095.67895833 -.00025500  00000+0 -85926-3 0   954
2 66192  53.1565 120.2150 0001253  88.6868 190.0987 15.30211007    12
STARLINK-35197          
1 66193C 25243S   26095.68243056 -.00019641  00000+0 -66220-3 0   955
2 66193  53.1585 119.7503 0001193  79.8254  84.9675 15.30190245    19
STARLINK-35374          
1 66194C 25243T   26095.63659722 -.00012378  00000+0 -41646-3 0   957
2 66194  53.1585 119.9981 0001359  90.4910 164.2772 15.30254455    18
STARLINK-34813          
1 66195C 25243U   26095.67062500 -.00020854  00000+0 -70262-3 0   958
2 66195  53.1585 119.8741 0001314  74.8864 349.9132 15.30212412    16
STARLINK-35409          
1 66196C 25243V   26095.74284722 -.00053837  00000+0 -18140-2 0   952
2 66196  53.1583 119.5725 0001189  86.4540 358.9922 15.30226987    13
STARLINK-35259          
1 66197C 25243W   26095.71576389 -.00057537  00000+0 -19385-2 0   956
2 66197  53.1583 119.7676 0001289  85.9955 175.2701 15.30231606    15
STARLINK-35518          
1 66198C 25243X   26095.73798611 -.00027884  00000+0 -94014-3 0   958
2 66198  53.1567 119.9721 0001362  85.7527 140.9320 15.30193623    18
STARLINK-35509          
1 66199C 25243Y   26095.63034722 -.00005166  00000+0 -17407-3 0   954
2 66199  53.1586 119.9780 0001257  79.8463 163.6833 15.30199959    10
STARLINK-35551          
1 66200C 25243Z   26095.73173611 -.00050112  00000+0 -16887-2 0   950
2 66200  53.1588 119.5405 0001313  73.7567 351.1638 15.30221394    12
STARLINK-35543          
1 66201C 25243AA  26095.71437500 -.00047263  00000+0 -15924-2 0   953
2 66201  53.1584 119.6556 0001529  70.1428 241.6288 15.30225108    14
STARLINK-35534          
1 66202C 25243AB  26095.68243056 -.00027330  00000+0 -92086-3 0   959
2 66202  53.1584 119.8386 0001260  86.6054  31.6397 15.30214555    19
STARLINK-35548          
1 66203C 25243AC  26095.71159722 -.00027363  00000+0 -92278-3 0   959
2 66203  53.1582 119.7376 0001143  85.5221 176.0416 15.30186607    12
STARLINK-35490          
1 66204C 25243AD  26095.66437500 -.00019775  00000+0 -66634-3 0   952
2 66204  53.1580 120.0267 0001243  86.8808 239.5030 15.30209079    17
STARLINK-35748          
1 66206C 25244A   26095.66437500 -.00029854  00000+0 -10058-2 0   952
2 66206  53.1585 104.6400 0000864  95.8043 103.3851 15.30218183    15
STARLINK-35747          
1 66207C 25244B   26095.70743056  .00068143  00000+0  22994-2 0   958
2 66207  53.1576 104.7658 0001046  94.4187 150.1698 15.30118569    15
STARLINK-35751          
1 66208C 25244C   26095.74145833 -.00298000  00000+0 -10013-1 0   959
2 66208  53.1584 104.0978 0001162  89.4339 267.6822 15.30438307    13
STARLINK-35750          
1 66209C 25244D   26095.71020833 -.00053417  00000+0 -18001-2 0   956
2 66209  53.1579 104.1395 0001342  83.0183 154.2307 15.30222848    19
STARLINK-35740          
1 66210C 25244E   26095.62826389 -.00013706  00000+0 -46205-3 0   953
2 66210  53.1581 104.5550 0001388  85.7951  42.3065 15.30190648    13
STARLINK-35723          
1 66211C 25244F   26095.74979167 -.00068933  00000+0 -23230-2 0   954
2 66211  53.1576 103.9204 0001227  87.0407  25.8407 15.30229885    12
STARLINK-35710          
1 66212C 25244G   26095.73381944 -.00043363  00000+0 -14613-2 0   959
2 66212  53.1567 104.5674 0001266  95.8167 358.1985 15.30218512    12
STARLINK-34204          
1 66213C 25244H   26095.64076389 -.00040810  00000+0 -13752-2 0   951
2 66213  53.1573 104.3932 0001266  88.5010 160.8861 15.30217010    14
STARLINK-35714          
1 66214C 25244J   26095.62618056 -.00033126  00000+0 -11161-2 0   957
2 66214  53.1569 105.1587 0001347  88.6442  85.5585 15.30218746    18
STARLINK-35712          
1 66215C 25244K   26095.68729167 -.00041554  00000+0 -14003-2 0   952
2 66215  53.1583 104.2993 0001425  85.3049 356.5425 15.30216441    14
STARLINK-35709          
1 66216C 25244L   26095.62895833 -.00032477  00000+0 -10943-2 0   954
2 66216  53.1574 104.9394 0001206  93.1332 201.0754 15.30217884    17
STARLINK-35700          
1 66217C 25244M   26095.71229167 -.00080246  00000+0 -27062-2 0   953
2 66217  53.1582 104.4823 0001316  91.1974 337.3346 15.30211995    18
STARLINK-35722          
1 66218C 25244N   26095.64909722 -.00022259  00000+0 -75015-3 0   950
2 66218  53.1586 104.5703 0001253  84.9068  99.8897 15.30205568    15
STARLINK-35737          
1 66219C 25244P   26095.63312500 -.00014897  00000+0 -50189-3 0   956
2 66219  53.1585 104.6210 0001634  75.1571  33.1387 15.30210586    14
STARLINK-35677          
1 66220C 25244Q   26095.70951389 -.00065419  00000+0 -22043-2 0   953
2 66220  53.1582 104.1615 0001274  84.6382 137.1594 15.30231890    18
STARLINK-35704          
1 66221C 25244R   26095.72340278 -.00071581  00000+0 -24122-2 0   952
2 66221  53.1584 104.4054 0001290  86.9218  54.3856 15.30231694    15
